{
  "norad_id": 46036,
  "name": "STARLINK-1560",
  "history": [
    {
      "epoch": "2026-03-28T20:43:22.314144",
      "apogee_km": 478.8404141901128,
      "perigee_km": 476.5677028792088,
      "latitude_deg": 44.1883373236189,
      "longitude_deg": -53.50853984011337,
      "semi_major_axis_km": 6855.84105853466,
      "eccentricity": 0.00016575,
      "inclination_deg": 53.1579,
      "raan_deg": 37.5045,
      "arg_perigee_deg": 77.11,
      "mean_anomaly_deg": 283.0086,
      "mean_motion_rev_day": 15.29366775
    },
    {
      "epoch": "2026-03-29T02:59:47.169600",
      "apogee_km": 478.8910660145457,
      "perigee_km": 476.4558821341552,
      "latitude_deg": -47.83410005555855,
      "longitude_deg": -28.414255999960005,
      "semi_major_axis_km": 6855.81047407435,
      "eccentricity": 0.0001776,
      "inclination_deg": 53.1579,
      "raan_deg": 36.2922,
      "arg_perigee_deg": 73.6072,
      "mean_anomaly_deg": 286.5124,
      "mean_motion_rev_day": 15.29377009
    }
  ]
}